CCSDS_OMM_VERS = 2.0
CREATION_DATE  = 
ORIGINATOR     = 

OBJECT_NAME    = PROGRESS-MS 32
OBJECT_ID      = 2025-204A
CENTER_NAME    = EARTH
REF_FRAME      = TEME
TIME_SYSTEM    = UTC
MEAN_ELEMENT_THEORY = SGP/SGP4

EPOCH          = 2025-11-06T07:01:00.427584
MEAN_MOTION    = 15.49789706
ECCENTRICITY   = .00051238
INCLINATION    = 51.6335
RA_OF_ASC_NODE = 322.9076
ARG_OF_PERICENTER = 22.8618
MEAN_ANOMALY   = 337.2598

EPHEMERIS_TYPE = 0
CLASSIFICATION_TYPE = U
NORAD_CAT_ID   = 65586
ELEMENT_SET_NO = 999
REV_AT_EPOCH   = 27
BSTAR          = .21866297E-3
MEAN_MOTION_DOT = .11954E-3
MEAN_MOTION_DDOT = 0

CCSDS_OMM_VERS = 2.0
CREATION_DATE  = 
ORIGINATOR     = 

OBJECT_NAME    = CYGNUS NG-23
OBJECT_ID      = 2025-208A
CENTER_NAME    = EARTH
REF_FRAME      = TEME
TIME_SYSTEM    = UTC
MEAN_ELEMENT_THEORY = SGP/SGP4

EPOCH          = 2025-11-06T07:01:00.427584
MEAN_MOTION    = 15.49789706
ECCENTRICITY   = .00051238
INCLINATION    = 51.6335
RA_OF_ASC_NODE = 322.9076
ARG_OF_PERICENTER = 22.8618
MEAN_ANOMALY   = 337.2598

EPHEMERIS_TYPE = 0
CLASSIFICATION_TYPE = U
NORAD_CAT_ID   = 65616
ELEMENT_SET_NO = 999
REV_AT_EPOCH   = 22
BSTAR          = .21866297E-3
MEAN_MOTION_DOT = .11954E-3
MEAN_MOTION_DDOT = 0

CCSDS_OMM_VERS = 2.0
CREATION_DATE  = 
ORIGINATOR     = 

OBJECT_NAME    = DRAGONFLY
OBJECT_ID      = 1998-067XH
CENTER_NAME    = EARTH
REF_FRAME      = TEME
TIME_SYSTEM    = UTC
MEAN_ELEMENT_THEORY = SGP/SGP4

EPOCH          = 2025-11-06T07:09:51.084288
MEAN_MOTION    = 15.60650724
ECCENTRICITY   = .00039301
INCLINATION    = 51.6311
RA_OF_ASC_NODE = 320.7027
ARG_OF_PERICENTER = 83.8399
MEAN_ANOMALY   = 276.3042

EPHEMERIS_TYPE = 0
CLASSIFICATION_TYPE = U
NORAD_CAT_ID   = 65729
ELEMENT_SET_NO = 999
REV_AT_EPOCH   = 745
BSTAR          = .14973388E-2
MEAN_MOTION_DOT = .128074E-2
MEAN_MOTION_DDOT = 0

CCSDS_OMM_VERS = 2.0
CREATION_DATE  = 
ORIGINATOR     = 

OBJECT_NAME    = 1998-067XJ
OBJECT_ID      = 1998-067XJ
CENTER_NAME    = EARTH
REF_FRAME      = TEME
TIME_SYSTEM    = UTC
MEAN_ELEMENT_THEORY = SGP/SGP4

EPOCH          = 2025-11-06T07:19:08.411808
MEAN_MOTION    = 15.70599974
ECCENTRICITY   = .00112267
INCLINATION    = 51.6280
RA_OF_ASC_NODE = 319.2366
ARG_OF_PERICENTER = 66.4281
MEAN_ANOMALY   = 293.7894

EPHEMERIS_TYPE = 0
CLASSIFICATION_TYPE = U
NORAD_CAT_ID   = 65730
ELEMENT_SET_NO = 999
REV_AT_EPOCH   = 747
BSTAR          = .29815461E-2
MEAN_MOTION_DOT = .394142E-2
MEAN_MOTION_DDOT = 0

CCSDS_OMM_VERS = 2.0
CREATION_DATE  = 
ORIGINATOR     = 

OBJECT_NAME    = 1998-067XK
OBJECT_ID      = 1998-067XK
CENTER_NAME    = EARTH
REF_FRAME      = TEME
TIME_SYSTEM    = UTC
MEAN_ELEMENT_THEORY = SGP/SGP4

EPOCH          = 2025-11-06T06:22:03.307584
MEAN_MOTION    = 15.58361534
ECCENTRICITY   = .00051869
INCLINATION    = 51.6331
RA_OF_ASC_NODE = 321.2326
ARG_OF_PERICENTER = 62.0768
MEAN_ANOMALY   = 298.0749

EPHEMERIS_TYPE = 0
CLASSIFICATION_TYPE = U
NORAD_CAT_ID   = 65731
ELEMENT_SET_NO = 999
REV_AT_EPOCH   = 744
BSTAR          = .11467199E-2
MEAN_MOTION_DOT = .89349E-3
MEAN_MOTION_DDOT = 0

CCSDS_OMM_VERS = 2.0
CREATION_DATE  = 
ORIGINATOR     = 

OBJECT_NAME    = RSP-03
OBJECT_ID      = 1998-067XL
CENTER_NAME    = EARTH
REF_FRAME      = TEME
TIME_SYSTEM    = UTC
MEAN_ELEMENT_THEORY = SGP/SGP4

EPOCH          = 2025-11-06T06:00:21.847104
MEAN_MOTION    = 15.59460594
ECCENTRICITY   = .00060177
INCLINATION    = 51.6306
RA_OF_ASC_NODE = 321.1300
ARG_OF_PERICENTER = 63.6612
MEAN_ANOMALY   = 296.4998

EPHEMERIS_TYPE = 0
CLASSIFICATION_TYPE = U
NORAD_CAT_ID   = 65732
ELEMENT_SET_NO = 999
REV_AT_EPOCH   = 745
BSTAR          = .1316562E-2
MEAN_MOTION_DOT = .107296E-2
MEAN_MOTION_DDOT = 0

CCSDS_OMM_VERS = 2.0
CREATION_DATE  = 
ORIGINATOR     = 

OBJECT_NAME    = GHS-01
OBJECT_ID      = 1998-067XM
CENTER_NAME    = EARTH
REF_FRAME      = TEME
TIME_SYSTEM    = UTC
MEAN_ELEMENT_THEORY = SGP/SGP4

EPOCH          = 2025-11-06T06:54:40.834368
MEAN_MOTION    = 15.61457116
ECCENTRICITY   = .00044668
INCLINATION    = 51.6319
RA_OF_ASC_NODE = 320.6332
ARG_OF_PERICENTER = 81.6850
MEAN_ANOMALY   = 278.4650

EPHEMERIS_TYPE = 0
CLASSIFICATION_TYPE = U
NORAD_CAT_ID   = 65733
ELEMENT_SET_NO = 999
REV_AT_EPOCH   = 746
BSTAR          = .16516492E-2
MEAN_MOTION_DOT = .146135E-2
MEAN_MOTION_DDOT = 0

CCSDS_OMM_VERS = 2.0
CREATION_DATE  = 
ORIGINATOR     = 

OBJECT_NAME    = YOTSUBA-KULOVER
OBJECT_ID      = 1998-067XN
CENTER_NAME    = EARTH
REF_FRAME      = TEME
TIME_SYSTEM    = UTC
MEAN_ELEMENT_THEORY = SGP/SGP4

EPOCH          = 2025-11-06T07:28:28.864416
MEAN_MOTION    = 15.53808670
ECCENTRICITY   = .00026285
INCLINATION    = 51.6323
RA_OF_ASC_NODE = 322.2864
ARG_OF_PERICENTER = 13.3948
MEAN_ANOMALY   = 346.7112

EPHEMERIS_TYPE = 0
CLASSIFICATION_TYPE = U
NORAD_CAT_ID   = 65941
ELEMENT_SET_NO = 999
REV_AT_EPOCH   = 418
BSTAR          = .10916774E-2
MEAN_MOTION_DOT = .71602E-3
MEAN_MOTION_DDOT = 0

CCSDS_OMM_VERS = 2.0
CREATION_DATE  = 
ORIGINATOR     = 

OBJECT_NAME    = BOTAN
OBJECT_ID      = 1998-067XP
CENTER_NAME    = EARTH
REF_FRAME      = TEME
TIME_SYSTEM    = UTC
MEAN_ELEMENT_THEORY = SGP/SGP4

EPOCH          = 2025-11-06T05:43:11.276544
MEAN_MOTION    = 15.54833848
ECCENTRICITY   = .00048305
INCLINATION    = 51.6323
RA_OF_ASC_NODE = 322.5492
ARG_OF_PERICENTER = 28.2597
MEAN_ANOMALY   = 331.8656

EPHEMERIS_TYPE = 0
CLASSIFICATION_TYPE = U
NORAD_CAT_ID   = 65942
ELEMENT_SET_NO = 999
REV_AT_EPOCH   = 417
BSTAR          = .1389075E-2
MEAN_MOTION_DOT = .95041E-3
MEAN_MOTION_DDOT = 0

CCSDS_OMM_VERS = 2.0
CREATION_DATE  = 
ORIGINATOR     = 

OBJECT_NAME    = E-KAGAKU-1
OBJECT_ID      = 1998-067XQ
CENTER_NAME    = EARTH
REF_FRAME      = TEME
TIME_SYSTEM    = UTC
MEAN_ELEMENT_THEORY = SGP/SGP4

EPOCH          = 2025-11-05T11:23:48.792192
MEAN_MOTION    = 15.53691300
ECCENTRICITY   = .00043857
INCLINATION    = 51.6326
RA_OF_ASC_NODE = 326.4510
ARG_OF_PERICENTER = 13.9907
MEAN_ANOMALY   = 346.1204

EPHEMERIS_TYPE = 0
CLASSIFICATION_TYPE = U
NORAD_CAT_ID   = 65943
ELEMENT_SET_NO = 999
REV_AT_EPOCH   = 405
BSTAR          = .85729517E-3
MEAN_MOTION_DOT = .55785E-3
MEAN_MOTION_DDOT = 0

CCSDS_OMM_VERS = 2.0
CREATION_DATE  = 
ORIGINATOR     = 

OBJECT_NAME    = HRC MONOBLOCK CAMERA
OBJECT_ID      = 1998-067XR
CENTER_NAME    = EARTH
REF_FRAME      = TEME
TIME_SYSTEM    = UTC
MEAN_ELEMENT_THEORY = SGP/SGP4

EPOCH          = 2025-11-06T06:47:26.055744
MEAN_MOTION    = 15.50938396
ECCENTRICITY   = .00046043
INCLINATION    = 51.6322
RA_OF_ASC_NODE = 322.8434
ARG_OF_PERICENTER = 34.3942
MEAN_ANOMALY   = 325.7344

EPHEMERIS_TYPE = 0
CLASSIFICATION_TYPE = U
NORAD_CAT_ID   = 66052
ELEMENT_SET_NO = 999
REV_AT_EPOCH   = 317
BSTAR          = .65657544E-3
MEAN_MOTION_DOT = .38479E-3
MEAN_MOTION_DDOT = 0

CCSDS_OMM_VERS = 2.0
CREATION_DATE  = 
ORIGINATOR     = 

OBJECT_NAME    = HTV-X1
OBJECT_ID      = 2025-241A
CENTER_NAME    = EARTH
REF_FRAME      = TEME
TIME_SYSTEM    = UTC
MEAN_ELEMENT_THEORY = SGP/SGP4

EPOCH          = 2025-11-06T07:01:00.427584
MEAN_MOTION    = 15.49789706
ECCENTRICITY   = .00051238
INCLINATION    = 51.6335
RA_OF_ASC_NODE = 322.9076
ARG_OF_PERICENTER = 22.8618
MEAN_ANOMALY   = 337.2598

EPHEMERIS_TYPE = 0
CLASSIFICATION_TYPE = U
NORAD_CAT_ID   = 66174
ELEMENT_SET_NO = 999
REV_AT_EPOCH   = 145
BSTAR          = .21866297E-3
MEAN_MOTION_DOT = .11954E-3
MEAN_MOTION_DDOT = 0

